OBJECT_NAME,OBJECT_ID,EPOCH,MEAN_MOTION,ECCENTRICITY,INCLINATION,RA_OF_ASC_NODE,ARG_OF_PERICENTER,MEAN_ANOMALY,EPHEMERIS_TYPE,CLASSIFICATION_TYPE,NORAD_CAT_ID,ELEMENT_SET_NO,REV_AT_EPOCH,BSTAR,MEAN_MOTION_DOT,MEAN_MOTION_DDOT
QPS-SAR-8 (AMATERU-IV),2024-149CC,2026-06-28T12:03:43.787232,15.04242337,.00041591,97.6668,258.5572,81.9705,278.1992,0,U,60542,999,10197,.42230425E-3,.5813E-4,0
ARCTIC WEATHER SATELLITE,2024-149CD,2026-06-28T10:29:50.687808,14.89799435,.00036416,97.6799,249.5813,83.0946,277.0687,0,U,60543,999,10097,.84835575E-4,.76E-5,0
CAPELLA-15 (ACADIA-5),2024-149CE,2026-06-28T14:04:37.575264,14.92395746,.00041088,97.6774,252.2049,43.5106,316.6437,0,U,60544,999,10155,.32473612E-3,.327E-4,0
HAWK-10B,2024-149CF,2026-06-28T04:50:38.763456,14.96542260,.00063534,97.6808,254.2680,63.8430,296.3445,0,U,60545,999,10163,.13060977E-3,.1428E-4,0
ICEYE-X39,2024-149CG,2026-06-28T11:37:53.792832,14.99961255,.0006461,97.6768,256.3541,89.9049,270.2915,0,U,60546,999,10181,.25222009E-3,.3075E-4,0
UMBRA-10,2024-149CH,2026-06-28T04:56:16.587456,15.18364966,.00004447,97.6982,266.6300,175.8964,184.2273,0,U,60547,999,10240,.75895296E-3,.15544E-3,0
ICEYE-X33,2024-149CJ,2026-06-28T04:03:52.359264,15.00905794,.00026189,97.7345,258.2488,60.7864,299.3622,0,U,60548,999,10185,.35614388E-3,.4475E-4,0
ICEYE-X40,2024-149CK,2026-06-28T10:59:32.570304,14.97973519,.00055858,97.6810,255.7734,48.4441,311.7260,0,U,60549,999,10176,.10445748E-3,.1175E-4,0
SATELIOT_1,2024-149CL,2026-06-28T10:45:24.016896,14.98114073,.00077873,97.6756,255.1601,45.3372,314.8484,0,U,60550,999,10175,.12766844E-3,.1454E-4,0
BRO-14,2024-149CM,2026-06-28T03:55:12.040320,14.96203356,.0008171,97.6875,254.7439,67.9748,292.2341,0,U,60551,999,10163,.15434037E-3,.1684E-4,0
SATELIOT_3,2024-149CN,2026-06-28T05:22:11.236224,14.98097587,.00062201,97.6820,255.7386,62.1117,298.0735,0,U,60552,999,10173,.22756806E-3,.2636E-4,0
BRO-15,2024-149CP,2026-06-28T11:31:37.601184,14.96182815,.00090685,97.6804,254.6465,58.3605,301.8500,0,U,60553,999,10169,.22392265E-3,.2468E-4,0
UM5-RIBAT,2024-149CQ,2026-06-28T04:54:11.322144,15.01134102,.00026687,97.6630,256.8557,44.4165,315.7273,0,U,60554,999,10184,.23017189E-3,.2889E-4,0
UM5-EOSAT,2024-149CR,2026-06-28T04:00:50.590080,15.01615721,.00091334,97.6749,257.7756,81.9843,278.2418,0,U,60555,999,10186,.3144302E-3,.4022E-4,0
LASARSAT,2024-247Q,2026-06-28T11:20:26.592864,15.47012581,.00070173,44.9719,198.7678,41.2336,318.9083,0,U,62391,999,8506,.56739697E-3,.29081E-3,0
CROCUBE,2024-247T,2026-06-28T07:51:18.669024,15.48984330,.00068544,44.9690,196.7325,45.5250,314.6200,0,U,62394,999,8507,.62422395E-3,.34355E-3,0
TEVEL2-4,2025-052D,2026-06-27T16:17:56.111424,15.34970355,.00048165,97.3898,75.0900,83.9278,276.2514,0,U,63213,999,7172,.54141956E-3,.18314E-3,0
TEVEL2-5,2025-052E,2026-06-27T23:04:42.830112,15.34803473,.0004767,97.3898,75.3176,85.2534,274.9254,0,U,63214,999,7176,.53188E-3,.17894E-3,0
TEVEL2-6,2025-052F,2026-06-28T15:01:40.548000,15.34791487,.00046052,97.3900,75.9681,84.5630,275.6138,0,U,63215,999,7186,.52165147E-3,.1754E-3,0
TEVEL2-1,2025-052H,2026-06-28T04:51:50.560128,15.34227213,.00050019,97.3869,75.1550,92.4955,267.6861,0,U,63217,999,7178,.52050731E-3,.17191E-3,0
TEVEL2-3,2025-052J,2026-06-28T12:33:06.969312,15.34297653,.00048602,97.3875,75.4987,93.1109,267.0690,0,U,63218,999,7183,.51971962E-3,.17203E-3,0
TEVEL2-2,2025-052K,2026-06-28T04:52:11.799840,15.34238334,.00050144,97.3872,75.1580,92.9616,267.2201,0,U,63219,999,7178,.52754949E-3,.17431E-3,0
TEVEL2-9,2025-052AD,2026-06-28T15:38:36.082464,15.32242983,.00083031,97.3933,74.9572,100.5589,259.6589,0,U,63237,999,7178,.50741128E-3,.15749E-3,0
TEVEL2-7,2025-052AE,2026-06-28T04:08:14.762112,15.31924070,.0008391,97.3937,74.3900,101.8745,258.3438,0,U,63238,999,7170,.50498389E-3,.15518E-3,0
TEVEL2-8,2025-052AF,2026-06-28T15:18:42.528672,15.31923094,.00084484,97.3936,74.8310,101.2865,258.9326,0,U,63239,999,7177,.49234096E-3,.15126E-3,0
FORESAIL-1 PRIME,2025-276DS,2026-06-28T04:43:54.593760,15.18798003,.0003854,97.4203,252.2666,81.3072,278.8599,0,U,66778,999,3207,.22144365E-3,.454E-4,0
