QPS-SAR-8 (AMATERU-IV)  
1 60542U 24149CC  26179.50259013  .00005813  00000+0  42230-3 0  9997
2 60542  97.6668 258.5572 0004159  81.9705 278.1992 15.04242337101971
ARCTIC WEATHER SATELLITE
1 60543U 24149CD  26179.43739222  .00000760  00000+0  84836-4 0  9990
2 60543  97.6799 249.5813 0003641  83.0946 277.0687 14.89799435100976
CAPELLA-15 (ACADIA-5)   
1 60544U 24149CE  26179.58654601  .00003270  00000+0  32474-3 0  9993
2 60544  97.6774 252.2049 0004108  43.5106 316.6437 14.92395746101559
HAWK-10B                
1 60545U 24149CF  26179.20183754  .00001428  00000+0  13061-3 0  9993
2 60545  97.6808 254.2680 0006353  63.8430 296.3445 14.96542260101631
ICEYE-X39               
1 60546U 24149CG  26179.48465038  .00003075  00000+0  25222-3 0  9994
2 60546  97.6768 256.3541 0006461  89.9049 270.2915 14.99961255101816
UMBRA-10                
1 60547U 24149CH  26179.20574754  .00015544  00000+0  75895-3 0  9996
2 60547  97.6982 266.6300 0000444 175.8964 184.2273 15.18364966102403
ICEYE-X33               
1 60548U 24149CJ  26179.16935601  .00004475  00000+0  35614-3 0  9990
2 60548  97.7345 258.2488 0002618  60.7864 299.3622 15.00905794101853
ICEYE-X40               
1 60549U 24149CK  26179.45801586  .00001175  00000+0  10446-3 0  9997
2 60549  97.6810 255.7734 0005585  48.4441 311.7260 14.97973519101768
SATELIOT_1              
1 60550U 24149CL  26179.44819464  .00001454  00000+0  12767-3 0  9990
2 60550  97.6756 255.1601 0007787  45.3372 314.8484 14.98114073101755
BRO-14                  
1 60551U 24149CM  26179.16333380  .00001684  00000+0  15434-3 0  9997
2 60551  97.6875 254.7439 0008171  67.9748 292.2341 14.96203356101636
SATELIOT_3              
1 60552U 24149CN  26179.22374116  .00002636  00000+0  22757-3 0  9991
2 60552  97.6820 255.7386 0006220  62.1117 298.0735 14.98097587101730
BRO-15                  
1 60553U 24149CP  26179.48029631  .00002468  00000+0  22392-3 0  9997
2 60553  97.6804 254.6465 0009068  58.3605 301.8500 14.96182815101696
UM5-RIBAT               
1 60554U 24149CQ  26179.20429771  .00002889  00000+0  23017-3 0  9999
2 60554  97.6630 256.8557 0002668  44.4165 315.7273 15.01134102101847
UM5-EOSAT               
1 60555U 24149CR  26179.16725220  .00004022  00000+0  31443-3 0  9996
2 60555  97.6749 257.7756 0009133  81.9843 278.2418 15.01615721101860
LASARSAT                
1 62391U 24247Q   26179.47253001  .00029081  00000+0  56740-3 0  9991
2 62391  44.9719 198.7678 0007017  41.2336 318.9083 15.47012581 85062
CROCUBE                 
1 62394U 24247T   26179.32729941  .00034355  00000+0  62422-3 0  9993
2 62394  44.9690 196.7325 0006854  45.5250 314.6200 15.48984330 85076
TEVEL2-4                
1 63213U 25052D   26178.67912166  .00018314  00000+0  54142-3 0  9996
2 63213  97.3898  75.0900 0004816  83.9278 276.2514 15.34970355 71724
TEVEL2-5                
1 63214U 25052E   26178.96160683  .00017894  00000+0  53188-3 0  9999
2 63214  97.3898  75.3176 0004767  85.2534 274.9254 15.34803473 71764
TEVEL2-6                
1 63215U 25052F   26179.62616375  .00017540  00000+0  52165-3 0  9990
2 63215  97.3900  75.9681 0004605  84.5630 275.6138 15.34791487 71867
TEVEL2-1                
1 63217U 25052H   26179.20266852  .00017191  00000+0  52051-3 0  9993
2 63217  97.3869  75.1550 0005001  92.4955 267.6861 15.34227213 71785
TEVEL2-3                
1 63218U 25052J   26179.52299733  .00017203  00000+0  51972-3 0  9998
2 63218  97.3875  75.4987 0004860  93.1109 267.0690 15.34297653 71836
TEVEL2-2                
1 63219U 25052K   26179.20291435  .00017431  00000+0  52755-3 0  9998
2 63219  97.3872  75.1580 0005014  92.9616 267.2201 15.34238334 71787
TEVEL2-9                
1 63237U 25052AD  26179.65180651  .00015749  00000+0  50741-3 0  9997
2 63237  97.3933  74.9572 0008303 100.5589 259.6589 15.32242983 71789
TEVEL2-7                
1 63238U 25052AE  26179.17239308  .00015518  00000+0  50498-3 0  9992
2 63238  97.3937  74.3900 0008391 101.8745 258.3438 15.31924070 71702
TEVEL2-8                
1 63239U 25052AF  26179.63799223  .00015126  00000+0  49234-3 0  9992
2 63239  97.3936  74.8310 0008448 101.2865 258.9326 15.31923094 71776
FORESAIL-1 PRIME        
1 66778U 25276DS  26179.19715965  .00004540  00000+0  22144-3 0  9992
2 66778  97.4203 252.2666 0003854  81.3072 278.8599 15.18798003 32073
